H1 CPF 01  gfz 2021 04 30 00  6201 tandemx   
H2 1003001  6202 36605    2021 04 30 00 59 42 2021 05 05 00 00 42   120 1 1  0 0 0
H9
10 0 59337  59022.000000  0    -958101.725  -1392465.030   6666914.900
10 0 59337  59142.000000  0   -1785730.553  -1710094.698   6418629.174
10 0 59337  59262.000000  0   -2587364.564  -1983618.228   6057512.111
10 0 59337  59382.000000  0   -3348187.643  -2208834.298   5589876.389
10 0 59337  59502.000000  0   -4054020.837  -2382634.153   5023909.395
10 0 59337  59622.000000  0   -4691591.987  -2503044.989   4369534.302
10 0 59337  59742.000000  0   -5248791.677  -2569248.908   3638239.671
10 0 59337  59862.000000  0   -5714910.233  -2581577.062   2842880.443
10 0 59337  59982.000000  0   -6080851.941  -2541480.141   1997453.113
10 0 59337  60102.000000  0   -6339321.753  -2451476.286   1116846.694
10 0 59337  60222.000000  0   -6484976.653  -2315074.808    216572.927
10 0 59337  60342.000000  0   -6514538.263  -2136678.688   -687514.447
10 0 59337  60462.000000  0   -6426864.862  -1921468.428  -1579508.758
10 0 59337  60582.000000  0   -6222978.353  -1675270.507  -2443739.129
10 0 59337  60702.000000  0   -5906047.984  -1404414.057  -3265052.062
10 0 59337  60822.000000  0   -5481331.791  -1115579.507  -4029080.560
10 0 59337  60942.000000  0   -4956078.001   -815642.997  -4722495.541
10 0 59337  61062.000000  0   -4339389.190   -511520.076  -5333234.966
10 0 59337  61182.000000  0   -3642052.445   -210013.100  -5850706.517
10 0 59337  61302.000000  0   -2876340.949     82334.741  -6265960.647
10 0 59337  61422.000000  0   -2055792.502    359375.362  -6571833.078
10 0 59337  61542.000000  0   -1194968.309    615478.779  -6763057.170
10 0 59337  61662.000000  0    -309196.630    845642.469  -6836344.585
10 0 59337  61782.000000  0     585694.158   1045585.701  -6790434.366
10 0 59337  61902.000000  0    1473650.204   1211825.931  -6626113.927
10 0 59337  62022.000000  0    2338674.586   1341738.657  -6346208.689
10 0 59337  62142.000000  0    3165110.229   1433598.711  -5955538.468
10 0 59337  62262.000000  0    3937919.380   1486601.819  -5460841.817
10 0 59337  62382.000000  0    4642955.661   1500866.811  -4870671.276
10 0 59337  62502.000000  0    5267226.999   1477418.631  -4195257.443
10 0 59337  62622.000000  0    5799141.763   1418151.585  -3446341.347
10 0 59337  62742.000000  0    6228733.132   1325773.323  -2636978.843
10 0 59337  62862.000000  0    6547858.054   1203730.714  -1781318.689
10 0 59337  62982.000000  0    6750364.319   1056119.015   -894355.739
10 0 59337  63102.000000  0    6832219.931    887575.477      8335.106
10 0 59337  63222.000000  0    6791600.512    703161.069    910878.369
10 0 59337  63342.000000  0    6628934.591    508232.850   1797384.074
10 0 59337  63462.000000  0    6346903.720    308308.978   2652237.470
10 0 59337  63582.000000  0    5950395.019    108931.362   3460382.660
10 0 59337  63702.000000  0    5446410.269    -84471.560   4207594.708
10 0 59337  63822.000000  0    4843933.375   -266716.226   4880733.032
10 0 59337  63942.000000  0    4153761.111   -432989.186   5467974.894
10 0 59337  64062.000000  0    3388298.007   -578961.773   5959020.624
10 0 59337  64182.000000  0    2561325.053   -700890.738   6345269.511
10 0 59337  64302.000000  0    1687745.474   -795704.579   6619964.694
10 0 59337  64422.000000  0     783312.038   -861073.403   6778306.701
10 0 59337  64542.000000  0    -135660.273   -895461.007   6817531.825
10 0 59337  64662.000000  0   -1052588.622   -898158.305   6736956.070
10 0 59337  64782.000000  0   -1950920.335   -869297.743   6537985.702
10 0 59337  64902.000000  0   -2814430.084   -809847.842   6224093.860
10 0 59337  65022.000000  0   -3627512.379   -721588.387   5800764.990
10 0 59337  65142.000000  0   -4375466.839   -607066.954   5275405.862
10 0 59337  65262.000000  0   -5044770.198   -469537.599   4657222.185
10 0 59337  65382.000000  0   -5623328.558   -312882.256   3957061.738
10 0 59337  65502.000000  0   -6100704.616   -141516.571   3187226.786
10 0 59337  65622.000000  0   -6468315.348     39718.021   2361259.817
10 0 59337  65742.000000  0   -6719597.024    225674.092   1493703.843
10 0 59337  65862.000000  0   -6850131.049    411025.951    599841.042
10 0 59337  65982.000000  0   -6857727.216    590402.544   -304584.283
10 0 59337  66102.000000  0   -6742461.521    758522.534  -1203652.404
10 0 59337  66222.000000  0   -6506667.251    910327.484  -2081556.945
10 0 59337  66342.000000  0   -6154882.982   1041109.817  -2922889.009
10 0 59337  66462.000000  0   -5693756.896   1146633.361  -3712915.028
10 0 59337  66582.000000  0   -5131907.251   1223241.808  -4437836.775
10 0 59337  66702.000000  0   -4479748.294   1267953.396  -5085029.603
10 0 59337  66822.000000  0   -3749285.023   1278539.641  -5643255.757
10 0 59337  66942.000000  0   -2953883.085   1253586.695  -6102849.815
10 0 59337  67062.000000  0   -2108018.520   1192537.650  -6455874.992
10 0 59337  67182.000000  0   -1227011.906   1095717.103  -6696248.871
10 0 59337  67302.000000  0    -326752.165    964336.309  -6819836.428
10 0 59337  67422.000000  0     576583.727    800479.374  -6824512.334
10 0 59337  67542.000000  0    1466813.208    607071.018  -6710195.387
10 0 59337  67662.000000  0    2328032.591    387825.429  -6478850.852
10 0 59337  67782.000000  0    3144895.072    147177.661  -6134459.998
10 0 59337  67902.000000  0    3902880.720   -109801.671  -5682958.443
10 0 59337  68022.000000  0    4588552.395   -377507.991  -5132143.408
10 0 59337  68142.000000  0    5189797.090   -649918.062  -4491551.806
10 0 59337  68262.000000  0    5696047.456   -920718.126  -3772305.765
10 0 59337  68382.000000  0    6098477.074  -1183441.984  -2986928.616
10 0 59337  68502.000000  0    6390166.060  -1431616.673  -2149133.373
10 0 59337  68622.000000  0    6566232.806  -1658912.265  -1273586.066
10 0 59337  68742.000000  0    6623927.003  -1859291.868   -375647.835
10 0 59337  68862.000000  0    6562681.597  -2027158.258    528898.715
10 0 59337  68982.000000  0    6384121.462  -2157493.577   1424134.518
10 0 59337  69102.000000  0    6092027.093  -2245987.701   2294293.103
10 0 59337  69222.000000  0    5692254.927  -2289152.835   3124047.419
10 0 59337  69342.000000  0    5192615.490  -2284419.865   3898787.935
10 0 59337  69462.000000  0    4602712.892  -2230215.193   4604884.209
10 0 59337  69582.000000  0    3933753.014  -2126015.703   5229926.330
10 0 59337  69702.000000  0    3198322.316  -1972381.899   5762944.117
10 0 59337  69822.000000  0    2410141.552  -1770967.266   6194596.143
10 0 59337  69942.000000  0    1583803.734  -1524504.465   6517327.707
10 0 59337  70062.000000  0     734499.600  -1236769.278   6725497.362
10 0 59337  70182.000000  0    -122264.260   -912522.022   6815469.829
10 0 59337  70302.000000  0    -970948.615   -557427.853   6785674.460
10 0 59337  70422.000000  0   -1796262.100   -177957.919   6636630.519
10 0 59337  70542.000000  0   -2583435.473    218728.206   6370938.761
10 0 59337  70662.000000  0   -3318485.592    624916.739   5993239.651
10 0 59337  70782.000000  0   -3988465.818   1032488.181   5510138.022
10 0 59337  70902.000000  0   -4581699.012   1433077.802   4930093.852
10 0 59337  71022.000000  0   -5087987.795   1818246.067   4263279.656
10 0 59337  71142.000000  0   -5498797.963   2179655.275   3521405.914
10 0 59337  71262.000000  0   -5807410.171   2509248.243   2717517.392
10 0 59337  71382.000000  0   -6009037.806   2799425.454   1865763.856
10 0 59337  71502.000000  0   -6100908.176   3043216.681    981147.730
10 0 59337  71622.000000  0   -6082302.778   3234442.300     79252.466
10 0 59337  71742.000000  0   -5954555.236   3367859.668   -824040.168
10 0 59337  71862.000000  0   -5721008.469   3439290.809  -1712838.528
10 0 59337  71982.000000  0   -5386931.582   3445728.986  -2571530.122
10 0 59337  72102.000000  0   -4959396.674   3385420.148  -3385062.936
10 0 59337  72222.000000  0   -4447121.854   3257918.263  -4139212.750
10 0 59337  72342.000000  0   -3860284.271   3064113.237  -4820830.588
10 0 59337  72462.000000  0   -3210309.454   2806231.766  -5418066.931
10 0 59337  72582.000000  0   -2509642.801   2487811.795  -5920568.396
10 0 59337  72702.000000  0   -1771507.747   2113652.188  -6319647.866
10 0 59337  72822.000000  0   -1009653.753   1689737.122  -6608422.900
10 0 59337  72942.000000  0    -238102.581   1223138.858  -6781922.595
10 0 59337  73062.000000  0     529104.850    721899.861  -6837163.565
10 0 59337  73182.000000  0    1278157.074    194897.018  -6773196.877
10 0 59337  73302.000000  0    1995716.184   -348312.502  -6591122.930
10 0 59337  73422.000000  0    2669149.323   -897660.061  -6294073.619
10 0 59337  73542.000000  0    3286747.655  -1442747.247  -5887164.726
10 0 59337  73662.000000  0    3837928.293  -1973037.280  -5377416.752
10 0 59337  73782.000000  0    4313418.500  -2478055.742  -4773645.952
10 0 59337  73902.000000  0    4705416.686  -2947596.649  -4086322.370
10 0 59337  74022.000000  0    5007726.779  -3371928.391  -3327398.418
10 0 59337  74142.000000  0    5215864.891  -3741996.155  -2510109.396
10 0 59337  74262.000000  0    5327134.407  -4049616.557  -1648746.759
10 0 59337  74382.000000  0    5340666.148  -4287659.044   -758408.903
10 0 59337  74502.000000  0    5257422.791  -4450210.119    145266.577
10 0 59337  74622.000000  0    5080166.219  -4532715.942   1046383.997
10 0 59337  74742.000000  0    4813387.219  -4532097.553   1929078.135
10 0 59337  74862.000000  0    4463200.268  -4446836.206   2777802.517
10 0 59337  74982.000000  0    4037206.590  -4277026.652   3577610.937
10 0 59337  75102.000000  0    3544328.546  -4024398.328   4314427.008
10 0 59337  75222.000000  0    2994618.723  -3692302.620   4975296.013
10 0 59337  75342.000000  0    2399050.356  -3285666.633   5548612.856
10 0 59337  75462.000000  0    1769294.070  -2810916.349   6024324.302
99
